XRISM                   
1 57800U 23137A   26091.81759079  .00006352  00000+0  35740-3 0  9997
2 57800  31.0013 134.0398 0007914 271.7893  88.1839 15.11774375141291
ACS3                    
1 59588U 24077B   26091.53053178  .00037824  00000+0  29532-1 0  9990
2 59588  97.1960  27.5089 0073127  24.9280 335.5388 13.90722879 97374
HTV-X1                  
1 66174U 25241A   26091.53963491  .00001271  00000+0  51596-4 0  9996
2 66174  51.6374 322.9356 0007227 261.2485  98.7678 15.32489575 24446
SZ-21 MODULE            
1 66515U 25246C   26091.28153335  .00041682  00000+0  33251-3 0  9997
2 66515  41.4741  64.1049 0002480 219.0022 141.0642 15.70350675 21628
